{
    "type": "FeatureCollection",
    "generator": "JOSM",
    "features": [
        {
            "type": "Feature",
            "properties": {
                "ref": "CC-107",
                "level": "1"
            },
            "geometry": {
                "type": "Point",
                "coordinates": [
                    -73.64018523268,
                    45.45812780297
                ]
            }
        },
        {
            "type": "Feature",
            "properties": {
                "ref": "CC-bath-M-1",
                "level": "1"
            },
            "geometry": {
                "type": "Point",
                "coordinates": [
                    -73.64068052216,
                    45.45841457422
                ]
            }
        },
        {
            "type": "Feature",
            "properties": {
                "ref": "CC-155",
                "level": "1",
                "indoor": "room"
            },
            "geometry": {
                "type": "Polygon",
                "coordinates": [
                    [
                        [
                            -73.64012681964,
                            45.45819270364
                        ],
                        [
                            -73.64015158870,
                            45.45820228261
                        ],
                        [
                            -73.64016663854,
                            45.45818313604
                        ],
                        [
                            -73.64014752742,
                            45.45817574517
                        ],
                        [
                            -73.64014186947,
                            45.45817355707
                        ],
                        [
                            -73.64012681964,
                            45.45819270364
                        ]
                    ]
                ]
            }
        },
        {
            "type": "Feature",
            "properties": {
                "ref": "CC-stair-1-01",
                "level": "1"
            },
            "geometry": {
                "type": "Point",
                "coordinates": [
                    -73.64075691868,
                    45.45838717391
                ]
            }
        },
        {
            "type": "Feature",
            "properties": {
                "door": "hinged"
            },
            "geometry": {
                "type": "Point",
                "coordinates": [
                    -73.64019903977,
                    45.45819936539
                ]
            }
        },
        {
            "type": "Feature",
            "properties": {
                "highway": "footway",
                "level": "1"
            },
            "geometry": {
                "type": "LineString",
                "coordinates": [
                    [
                        -73.64074129380,
                        45.45842160542
                    ],
                    [
                        -73.64075691868,
                        45.45838717391
                    ],
                    [
                        -73.64078159380,
                        45.45836080541
                    ]
                ]
            }
        },
        {
            "type": "Feature",
            "properties": {
                "ref": "CC-stair-1-02",
                "level": "1"
            },
            "geometry": {
                "type": "Point",
                "coordinates": [
                    -73.64048931629,
                    45.45833944064
                ]
            }
        },
        {
            "type": "Feature",
            "properties": {
                "highway": "footway",
                "level": "1"
            },
            "geometry": {
                "type": "LineString",
                "coordinates": [
                    [
                        -73.64013831473,
                        45.45821716819
                    ],
                    [
                        -73.64015146444,
                        45.45822225652
                    ],
                    [
                        -73.64017859538,
                        45.45818776012
                    ],
                    [
                        -73.64019328627,
                        45.45816908097
                    ],
                    [
                        -73.64020926601,
                        45.45814876306
                    ],
                    [
                        -73.64023661261,
                        45.45811399241
                    ],
                    [
                        -73.64021882579,
                        45.45810710972
                    ]
                ]
            }
        },
        {
            "type": "Feature",
            "properties": {
                "stairs": "yes",
                "indoor": "room",
                "ref": "CC-stair-2",
                "level": "1"
            },
            "geometry": {
                "type": "Polygon",
                "coordinates": [
                    [
                        [
                            -73.64043710369,
                            45.45835477353
                        ],
                        [
                            -73.64048613631,
                            45.45837373590
                        ],
                        [
                            -73.64052654790,
                            45.45832232397
                        ],
                        [
                            -73.64050832193,
                            45.45831527544
                        ],
                        [
                            -73.64047751528,
                            45.45830336158
                        ],
                        [
                            -73.64043710369,
                            45.45835477353
                        ]
                    ]
                ]
            }
        },
        {
            "type": "Feature",
            "properties": {
                "door": "hinged"
            },
            "geometry": {
                "type": "Point",
                "coordinates": [
                    -73.64038577999,
                    45.45821702648
                ]
            }
        },
        {
            "type": "Feature",
            "properties": {
                "ref": "CC-109",
                "level": "1",
                "indoor": "room"
            },
            "geometry": {
                "type": "Polygon",
                "coordinates": [
                    [
                        [
                            -73.64017690914,
                            45.45811220751
                        ],
                        [
                            -73.64020622762,
                            45.45812354589
                        ],
                        [
                            -73.64019173519,
                            45.45814198334
                        ],
                        [
                            -73.64020926601,
                            45.45814876306
                        ],
                        [
                            -73.64021852618,
                            45.45815234426
                        ],
                        [
                            -73.64025754428,
                            45.45810270495
                        ],
                        [
                            -73.64020143480,
                            45.45808100564
                        ],
                        [
                            -73.64017690914,
                            45.45811220751
                        ]
                    ]
                ]
            }
        },
        {
            "type": "Feature",
            "properties": {
                "highway": "footway",
                "level": "1"
            },
            "geometry": {
                "type": "LineString",
                "coordinates": [
                    [
                        -73.64063241526,
                        45.45833896149
                    ],
                    [
                        -73.64061775169,
                        45.45835759520
                    ],
                    [
                        -73.64059859284,
                        45.45838195470
                    ],
                    [
                        -73.64061919695,
                        45.45838992751
                    ]
                ]
            }
        },
        {
            "type": "Feature",
            "properties": {
                "ref": "CC-entrance-2",
                "door": "yes",
                "entrance": "main",
                "level": "1"
            },
            "geometry": {
                "type": "Point",
                "coordinates": [
                    -73.64078159380,
                    45.45836080541
                ]
            }
        },
        {
            "type": "Feature",
            "properties": {
                "highway": "footway",
                "level": "1"
            },
            "geometry": {
                "type": "LineString",
                "coordinates": [
                    [
                        -73.64055986845,
                        45.45824973527
                    ],
                    [
                        -73.64053899257,
                        45.45827627847
                    ],
                    [
                        -73.64052298701,
                        45.45829662915
                    ],
                    [
                        -73.64050832193,
                        45.45831527544
                    ],
                    [
                        -73.64048931629,
                        45.45833944064
                    ]
                ]
            }
        },
        {
            "type": "Feature",
            "properties": {
                "ref": "CC-115",
                "level": "1",
                "indoor": "room"
            },
            "geometry": {
                "type": "Polygon",
                "coordinates": [
                    [
                        [
                            -73.64036006361,
                            45.45820708117
                        ],
                        [
                            -73.64038577999,
                            45.45821702648
                        ],
                        [
                            -73.64050311749,
                            45.45826240449
                        ],
                        [
                            -73.64054603739,
                            45.45820780135
                        ],
                        [
                            -73.64040298347,
                            45.45815247796
                        ],
                        [
                            -73.64036006361,
                            45.45820708117
                        ]
                    ]
                ]
            }
        },
        {
            "type": "Feature",
            "properties": {
                "ref": "CC-107",
                "level": "1",
                "indoor": "room"
            },
            "geometry": {
                "type": "Polygon",
                "coordinates": [
                    [
                        [
                            -73.64016241671,
                            45.45813064497
                        ],
                        [
                            -73.64017819760,
                            45.45813674793
                        ],
                        [
                            -73.64019072418,
                            45.45814159235
                        ],
                        [
                            -73.64020465920,
                            45.45812386404
                        ],
                        [
                            -73.64017635174,
                            45.45811291665
                        ],
                        [
                            -73.64016241671,
                            45.45813064497
                        ]
                    ]
                ]
            }
        },
        {
            "type": "Feature",
            "properties": {
                "level": "1",
                "ref": "CC-112.1"
            },
            "geometry": {
                "type": "Point",
                "coordinates": [
                    -73.64030637941,
                    45.45825789125
                ]
            }
        },
        {
            "type": "Feature",
            "properties": {
                "door": "hinged"
            },
            "geometry": {
                "type": "Point",
                "coordinates": [
                    -73.64014752742,
                    45.45817574517
                ]
            }
        },
        {
            "type": "Feature",
            "properties": {
                "ref": "CC-stair-1-04",
                "level": "1"
            },
            "geometry": {
                "type": "Point",
                "coordinates": [
                    -73.63996895534,
                    45.45803810508
                ]
            }
        },
        {
            "type": "Feature",
            "properties": {
                "ref": "CC-106",
                "level": "1"
            },
            "geometry": {
                "type": "Point",
                "coordinates": [
                    -73.64005341998,
                    45.45817880754
                ]
            }
        },
        {
            "type": "Feature",
            "properties": {
                "door": "hinged"
            },
            "geometry": {
                "type": "Point",
                "coordinates": [
                    -73.64053899257,
                    45.45827627847
                ]
            }
        },
        {
            "type": "Feature",
            "properties": {
                "ref": "CC-112",
                "level": "1",
                "indoor": "room"
            },
            "geometry": {
                "type": "Polygon",
                "coordinates": [
                    [
                        [
                            -73.64020535363,
                            45.45820180715
                        ],
                        [
                            -73.64019903977,
                            45.45819936539
                        ],
                        [
                            -73.64018513399,
                            45.45819398759
                        ],
                        [
                            -73.64014249278,
                            45.45824823618
                        ],
                        [
                            -73.64026178853,
                            45.45829437148
                        ],
                        [
                            -73.64028659291,
                            45.45826281513
                        ],
                        [
                            -73.64027749407,
                            45.45825929633
                        ],
                        [
                            -73.64029756053,
                            45.45823376758
                        ],
                        [
                            -73.64020758316,
                            45.45819897057
                        ],
                        [
                            -73.64020535363,
                            45.45820180715
                        ]
                    ]
                ]
            }
        },
        {
            "type": "Feature",
            "properties": {
                "door": "staircase"
            },
            "geometry": {
                "type": "Point",
                "coordinates": [
                    -73.64072769396,
                    45.45837585955
                ]
            }
        },
        {
            "type": "Feature",
            "properties": {
                "ref": "CC-101",
                "level": "1"
            },
            "geometry": {
                "type": "Point",
                "coordinates": [
                    -73.64008771027,
                    45.45806691712
                ]
            }
        },
        {
            "type": "Feature",
            "properties": {
                "ref": "CC-stair-4",
                "stairs": "yes",
                "indoor": "room",
                "level": "1"
            },
            "geometry": {
                "type": "Polygon",
                "coordinates": [
                    [
                        [
                            -73.63994353924,
                            45.45804599813
                        ],
                        [
                            -73.63995348565,
                            45.45804984472
                        ],
                        [
                            -73.63997791265,
                            45.45805929142
                        ],
                        [
                            -73.63999770039,
                            45.45803411717
                        ],
                        [
                            -73.63996332699,
                            45.45802082387
                        ],
                        [
                            -73.63994353924,
                            45.45804599813
                        ]
                    ]
                ]
            }
        },
        {
            "type": "Feature",
            "properties": {
                "highway": "footway",
                "level": "1"
            },
            "geometry": {
                "type": "LineString",
                "coordinates": [
                    [
                        -73.64069786586,
                        45.45836428275
                    ],
                    [
                        -73.64068321448,
                        45.45838291160
                    ],
                    [
                        -73.64066349432,
                        45.45840798526
                    ],
                    [
                        -73.64068052216,
                        45.45841457422
                    ]
                ]
            }
        },
        {
            "type": "Feature",
            "properties": {
                "highway": "footway",
                "level": "1"
            },
            "geometry": {
                "type": "LineString",
                "coordinates": [
                    [
                        -73.64075691868,
                        45.45838717391
                    ],
                    [
                        -73.64072769396,
                        45.45837585955
                    ],
                    [
                        -73.64069786586,
                        45.45836428275
                    ],
                    [
                        -73.64063241526,
                        45.45833896149
                    ],
                    [
                        -73.64060668052,
                        45.45832900603
                    ],
                    [
                        -73.64057484717,
                        45.45831669177
                    ],
                    [
                        -73.64052298701,
                        45.45829662915
                    ],
                    [
                        -73.64036977651,
                        45.45823737455
                    ],
                    [
                        -73.64032124808,
                        45.45821859630
                    ],
                    [
                        -73.64021595818,
                        45.45817785398
                    ],
                    [
                        -73.64019328627,
                        45.45816908097
                    ],
                    [
                        -73.64016223163,
                        45.45815706444
                    ],
                    [
                        -73.64003333231,
                        45.45810718271
                    ],
                    [
                        -73.64000214336,
                        45.45809511314
                    ],
                    [
                        -73.63993754555,
                        45.45807011558
                    ],
                    [
                        -73.63992659484,
                        45.45806587783
                    ],
                    [
                        -73.63990308830,
                        45.45805678117
                    ]
                ]
            }
        },
        {
            "type": "Feature",
            "properties": {
                "ref": "CC-117",
                "level": "1"
            },
            "geometry": {
                "type": "Point",
                "coordinates": [
                    -73.64055986845,
                    45.45824973527
                ]
            }
        },
        {
            "type": "Feature",
            "properties": {
                "ref": "CC-stair-1-05",
                "level": "1"
            },
            "geometry": {
                "type": "Point",
                "coordinates": [
                    -73.63990308830,
                    45.45805678117
                ]
            }
        },
        {
            "type": "Feature",
            "properties": {
                "highway": "footway",
                "level": "1"
            },
            "geometry": {
                "type": "LineString",
                "coordinates": [
                    [
                        -73.63993754555,
                        45.45807011558
                    ],
                    [
                        -73.63995348565,
                        45.45804984472
                    ],
                    [
                        -73.63996417251,
                        45.45803625434
                    ],
                    [
                        -73.63996895534,
                        45.45803810508
                    ]
                ]
            }
        },
        {
            "type": "Feature",
            "properties": {
                "door": "staircase"
            },
            "geometry": {
                "type": "Point",
                "coordinates": [
                    -73.64017859538,
                    45.45818776012
                ]
            }
        },
        {
            "type": "Feature",
            "properties": {
                "amenity": "toilets",
                "ref": "CC-bath-W-1",
                "level": "1",
                "indoor": "room",
                "female": "yes",
                "male": "no"
            },
            "geometry": {
                "type": "Polygon",
                "coordinates": [
                    [
                        [
                            -73.63995990391,
                            45.45813000151
                        ],
                        [
                            -73.63993361833,
                            45.45811983605
                        ],
                        [
                            -73.63991048616,
                            45.45814926509
                        ],
                        [
                            -73.63996659563,
                            45.45817096437
                        ],
                        [
                            -73.64000589243,
                            45.45812097050
                        ],
                        [
                            -73.63998742421,
                            45.45811382826
                        ],
                        [
                            -73.63997606854,
                            45.45810943666
                        ],
                        [
                            -73.63995990391,
                            45.45813000151
                        ]
                    ]
                ]
            }
        },
        {
            "type": "Feature",
            "properties": {
                "ref": "CC-119",
                "level": "1"
            },
            "geometry": {
                "type": "Point",
                "coordinates": [
                    -73.64068025128,
                    45.45829838057
                ]
            }
        },
        {
            "type": "Feature",
            "properties": {
                "door": "hinged"
            },
            "geometry": {
                "type": "Point",
                "coordinates": [
                    -73.64020926601,
                    45.45814876306
                ]
            }
        },
        {
            "type": "Feature",
            "properties": {
                "ref": "CC-bath-M-1",
                "amenity": "toilets",
                "level": "1",
                "indoor": "room",
                "male": "yes",
                "female": "no"
            },
            "geometry": {
                "type": "Polygon",
                "coordinates": [
                    [
                        [
                            -73.64062716821,
                            45.45842827710
                        ],
                        [
                            -73.64068176121,
                            45.45844938981
                        ],
                        [
                            -73.64072217280,
                            45.45839797794
                        ],
                        [
                            -73.64068321448,
                            45.45838291160
                        ],
                        [
                            -73.64066757980,
                            45.45837686521
                        ],
                        [
                            -73.64062716821,
                            45.45842827710
                        ]
                    ]
                ]
            }
        },
        {
            "type": "Feature",
            "properties": {
                "ref": "CC-122",
                "level": "1"
            },
            "geometry": {
                "type": "Point",
                "coordinates": [
                    -73.64061919695,
                    45.45838992751
                ]
            }
        },
        {
            "type": "Feature",
            "properties": {
                "highway": "footway",
                "level": "1"
            },
            "geometry": {
                "type": "LineString",
                "coordinates": [
                    [
                        -73.64032124808,
                        45.45821859630
                    ],
                    [
                        -73.64030655785,
                        45.45823724714
                    ],
                    [
                        -73.64029406782,
                        45.45825312724
                    ],
                    [
                        -73.64030637941,
                        45.45825789125
                    ]
                ]
            }
        },
        {
            "type": "Feature",
            "properties": {
                "stairs": "yes",
                "indoor": "room",
                "ref": "CC-stair-1",
                "level": "1"
            },
            "geometry": {
                "type": "Polygon",
                "coordinates": [
                    [
                        [
                            -73.64071363140,
                            45.45839375003
                        ],
                        [
                            -73.64076114753,
                            45.45841212592
                        ],
                        [
                            -73.64079068980,
                            45.45837454204
                        ],
                        [
                            -73.64074317368,
                            45.45835616615
                        ],
                        [
                            -73.64072769396,
                            45.45837585955
                        ],
                        [
                            -73.64071363140,
                            45.45839375003
                        ]
                    ]
                ]
            }
        },
        {
            "type": "Feature",
            "properties": {
                "ref": "CC-111",
                "level": "1"
            },
            "geometry": {
                "type": "Point",
                "coordinates": [
                    -73.64030949969,
                    45.45815051309
                ]
            }
        },
        {
            "type": "Feature",
            "properties": {
                "ref": "CC-102",
                "level": "1"
            },
            "geometry": {
                "type": "Point",
                "coordinates": [
                    -73.63995322723,
                    45.45811389237
                ]
            }
        },
        {
            "type": "Feature",
            "properties": {
                "door": "hinged"
            },
            "geometry": {
                "type": "Point",
                "coordinates": [
                    -73.64017819760,
                    45.45813674793
                ]
            }
        },
        {
            "type": "Feature",
            "properties": {
                "ref": "CC-109",
                "level": "1"
            },
            "geometry": {
                "type": "Point",
                "coordinates": [
                    -73.64021882579,
                    45.45810710972
                ]
            }
        },
        {
            "type": "Feature",
            "properties": {
                "ref": "CC-112",
                "level": "1"
            },
            "geometry": {
                "type": "Point",
                "coordinates": [
                    -73.64022728903,
                    45.45824446613
                ]
            }
        },
        {
            "type": "Feature",
            "properties": {
                "ref": "CC-116",
                "level": "1"
            },
            "geometry": {
                "type": "Point",
                "coordinates": [
                    -73.64038566682,
                    45.45830483394
                ]
            }
        },
        {
            "type": "Feature",
            "properties": {
                "highway": "footway",
                "level": "1"
            },
            "geometry": {
                "type": "LineString",
                "coordinates": [
                    [
                        -73.64005341998,
                        45.45817880754
                    ],
                    [
                        -73.63999483102,
                        45.45815613631
                    ],
                    [
                        -73.64001861787,
                        45.45812589183
                    ],
                    [
                        -73.64003333231,
                        45.45810718271
                    ],
                    [
                        -73.64004928850,
                        45.45808689473
                    ],
                    [
                        -73.64007029932,
                        45.45806017987
                    ],
                    [
                        -73.64008771027,
                        45.45806691712
                    ]
                ]
            }
        },
        {
            "type": "Feature",
            "properties": {
                "ref": "CC-bath-W-1",
                "level": "1"
            },
            "geometry": {
                "type": "Point",
                "coordinates": [
                    -73.63996213127,
                    45.45814598771
                ]
            }
        },
        {
            "type": "Feature",
            "properties": {
                "ref": "CC-stair-3",
                "stairs": "yes",
                "indoor": "room",
                "level": "1"
            },
            "geometry": {
                "type": "Polygon",
                "coordinates": [
                    [
                        [
                            -73.64015204225,
                            45.45820338272
                        ],
                        [
                            -73.64012626222,
                            45.45819341279
                        ],
                        [
                            -73.64009699865,
                            45.45823064222
                        ],
                        [
                            -73.64014148185,
                            45.45824784524
                        ],
                        [
                            -73.64018635268,
                            45.45819076010
                        ],
                        [
                            -73.64017859538,
                            45.45818776012
                        ],
                        [
                            -73.64016764950,
                            45.45818352701
                        ],
                        [
                            -73.64015204225,
                            45.45820338272
                        ]
                    ]
                ]
            }
        },
        {
            "type": "Feature",
            "properties": {
                "door": "hinged"
            },
            "geometry": {
                "type": "Point",
                "coordinates": [
                    -73.64059202473,
                    45.45834764582
                ]
            }
        },
        {
            "type": "Feature",
            "properties": {
                "ref": "CC-116",
                "level": "1",
                "indoor": "room"
            },
            "geometry": {
                "type": "Polygon",
                "coordinates": [
                    [
                        [
                            -73.64029009609,
                            45.45830531886
                        ],
                        [
                            -73.64043163352,
                            45.45836005563
                        ],
                        [
                            -73.64047650434,
                            45.45830297062
                        ],
                        [
                            -73.64035510936,
                            45.45825602349
                        ],
                        [
                            -73.64033496691,
                            45.45824823380
                        ],
                        [
                            -73.64029009609,
                            45.45830531886
                        ]
                    ]
                ]
            }
        },
        {
            "type": "Feature",
            "properties": {
                "level": "1",
                "ref": "CC-112.1",
                "indoor": "room"
            },
            "geometry": {
                "type": "Polygon",
                "coordinates": [
                    [
                        [
                            -73.64027878382,
                            45.45825933279
                        ],
                        [
                            -73.64028788265,
                            45.45826285159
                        ],
                        [
                            -73.64026279959,
                            45.45829476249
                        ],
                        [
                            -73.64028908512,
                            45.45830492790
                        ],
                        [
                            -73.64033395595,
                            45.45824784282
                        ],
                        [
                            -73.64030655785,
                            45.45823724714
                        ],
                        [
                            -73.64029857158,
                            45.45823415861
                        ],
                        [
                            -73.64027878382,
                            45.45825933279
                        ]
                    ]
                ]
            }
        },
        {
            "type": "Feature",
            "properties": {
                "ref": "CC-111",
                "level": "1",
                "indoor": "room"
            },
            "geometry": {
                "type": "Polygon",
                "coordinates": [
                    [
                        [
                            -73.64021953720,
                            45.45815273525
                        ],
                        [
                            -73.64023194099,
                            45.45815753218
                        ],
                        [
                            -73.64035905265,
                            45.45820669020
                        ],
                        [
                            -73.64040085775,
                            45.45815350526
                        ],
                        [
                            -73.64026134230,
                            45.45809955026
                        ],
                        [
                            -73.64021953720,
                            45.45815273525
                        ]
                    ]
                ]
            }
        },
        {
            "type": "Feature",
            "properties": {
                "door": "staircase"
            },
            "geometry": {
                "type": "Point",
                "coordinates": [
                    -73.63992659484,
                    45.45806587783
                ]
            }
        },
        {
            "type": "Feature",
            "properties": {
                "highway": "footway",
                "level": "1"
            },
            "geometry": {
                "type": "LineString",
                "coordinates": [
                    [
                        -73.63997505317,
                        45.45812955778
                    ],
                    [
                        -73.63996269362,
                        45.45812477520
                    ],
                    [
                        -73.63994887386,
                        45.45811942758
                    ],
                    [
                        -73.63995322723,
                        45.45811389237
                    ]
                ]
            }
        },
        {
            "type": "Feature",
            "properties": {
                "highway": "footway",
                "level": "1"
            },
            "geometry": {
                "type": "LineString",
                "coordinates": [
                    [
                        -73.64060668052,
                        45.45832900603
                    ],
                    [
                        -73.64059202473,
                        45.45834764582
                    ],
                    [
                        -73.64057279281,
                        45.45837209896
                    ],
                    [
                        -73.64054848774,
                        45.45836269405
                    ]
                ]
            }
        },
        {
            "type": "Feature",
            "properties": {
                "level": "1",
                "ref": "CC-120"
            },
            "geometry": {
                "type": "Point",
                "coordinates": [
                    -73.64054848774,
                    45.45836269405
                ]
            }
        },
        {
            "type": "Feature",
            "properties": {
                "door": "hinged"
            },
            "geometry": {
                "type": "Point",
                "coordinates": [
                    -73.64030655785,
                    45.45823724714
                ]
            }
        },
        {
            "type": "Feature",
            "properties": {
                "door": "hinged"
            },
            "geometry": {
                "type": "Point",
                "coordinates": [
                    -73.64068321448,
                    45.45838291160
                ]
            }
        },
        {
            "type": "Feature",
            "properties": {
                "door": "staircase"
            },
            "geometry": {
                "type": "Point",
                "coordinates": [
                    -73.63995348565,
                    45.45804984472
                ]
            }
        },
        {
            "type": "Feature",
            "properties": {
                "highway": "footway",
                "level": "1"
            },
            "geometry": {
                "type": "LineString",
                "coordinates": [
                    [
                        -73.64045766112,
                        45.45820789378
                    ],
                    [
                        -73.64040805849,
                        45.45818869986
                    ],
                    [
                        -73.64038577999,
                        45.45821702648
                    ],
                    [
                        -73.64036977651,
                        45.45823737455
                    ],
                    [
                        -73.64035510936,
                        45.45825602349
                    ],
                    [
                        -73.64033280745,
                        45.45828437985
                    ],
                    [
                        -73.64038566682,
                        45.45830483394
                    ]
                ]
            }
        },
        {
            "type": "Feature",
            "properties": {
                "door": "hinged"
            },
            "geometry": {
                "type": "Point",
                "coordinates": [
                    -73.63996269362,
                    45.45812477520
                ]
            }
        },
        {
            "type": "Feature",
            "properties": {
                "ref": "CC-115",
                "level": "1"
            },
            "geometry": {
                "type": "Point",
                "coordinates": [
                    -73.64045766112,
                    45.45820789378
                ]
            }
        },
        {
            "type": "Feature",
            "properties": {
                "ref": "CC-155",
                "level": "1"
            },
            "geometry": {
                "type": "Point",
                "coordinates": [
                    -73.64014614815,
                    45.45819037748
                ]
            }
        },
        {
            "type": "Feature",
            "properties": {
                "highway": "footway",
                "level": "1"
            },
            "geometry": {
                "type": "LineString",
                "coordinates": [
                    [
                        -73.64014614815,
                        45.45819037748
                    ],
                    [
                        -73.64013838217,
                        45.45818737241
                    ],
                    [
                        -73.64014752742,
                        45.45817574517
                    ],
                    [
                        -73.64016223163,
                        45.45815706444
                    ],
                    [
                        -73.64017819760,
                        45.45813674793
                    ],
                    [
                        -73.64018523268,
                        45.45812780297
                    ]
                ]
            }
        },
        {
            "type": "Feature",
            "properties": {
                "door": "hinged"
            },
            "geometry": {
                "type": "Point",
                "coordinates": [
                    -73.64035510936,
                    45.45825602349
                ]
            }
        },
        {
            "type": "Feature",
            "properties": {
                "highway": "footway",
                "level": "1"
            },
            "geometry": {
                "type": "LineString",
                "coordinates": [
                    [
                        -73.64000214336,
                        45.45809511314
                    ],
                    [
                        -73.63998742421,
                        45.45811382826
                    ],
                    [
                        -73.63997505317,
                        45.45812955778
                    ],
                    [
                        -73.63996213127,
                        45.45814598771
                    ]
                ]
            }
        },
        {
            "type": "Feature",
            "properties": {
                "door": "hinged"
            },
            "geometry": {
                "type": "Point",
                "coordinates": [
                    -73.64061775169,
                    45.45835759520
                ]
            }
        },
        {
            "type": "Feature",
            "properties": {
                "ref": "CC-122",
                "level": "1",
                "indoor": "room"
            },
            "geometry": {
                "type": "Polygon",
                "coordinates": [
                    [
                        [
                            -73.64056094892,
                            45.45840266815
                        ],
                        [
                            -73.64062615723,
                            45.45842788612
                        ],
                        [
                            -73.64066656882,
                            45.45837647424
                        ],
                        [
                            -73.64061775169,
                            45.45835759520
                        ],
                        [
                            -73.64060136051,
                            45.45835125624
                        ],
                        [
                            -73.64056094892,
                            45.45840266815
                        ]
                    ]
                ]
            }
        },
        {
            "type": "Feature",
            "properties": {
                "ref": "CC-119",
                "level": "1",
                "indoor": "room"
            },
            "geometry": {
                "type": "Polygon",
                "coordinates": [
                    [
                        [
                            -73.64056933678,
                            45.45828801350
                        ],
                        [
                            -73.64059085678,
                            45.45829633593
                        ],
                        [
                            -73.64075080794,
                            45.45835819384
                        ],
                        [
                            -73.64079066214,
                            45.45830749102
                        ],
                        [
                            -73.64060919095,
                            45.45823731060
                        ],
                        [
                            -73.64056933678,
                            45.45828801350
                        ]
                    ]
                ]
            }
        },
        {
            "type": "Feature",
            "properties": {
                "ref": "CC-102",
                "level": "1",
                "indoor": "room"
            },
            "geometry": {
                "type": "Polygon",
                "coordinates": [
                    [
                        [
                            -73.63993389702,
                            45.45811948150
                        ],
                        [
                            -73.63995917158,
                            45.45812925597
                        ],
                        [
                            -73.63996269362,
                            45.45812477520
                        ],
                        [
                            -73.63997505752,
                            45.45810904567
                        ],
                        [
                            -73.63994978296,
                            45.45809927120
                        ],
                        [
                            -73.63993389702,
                            45.45811948150
                        ]
                    ]
                ]
            }
        },
        {
            "type": "Feature",
            "properties": {
                "door": "hinged"
            },
            "geometry": {
                "type": "Point",
                "coordinates": [
                    -73.63998742421,
                    45.45811382826
                ]
            }
        },
        {
            "type": "Feature",
            "properties": {
                "ref": "CC-stair-1-03",
                "level": "1"
            },
            "geometry": {
                "type": "Point",
                "coordinates": [
                    -73.64013831473,
                    45.45821716819
                ]
            }
        },
        {
            "type": "Feature",
            "properties": {
                "ref": "CC-106",
                "level": "1",
                "indoor": "room"
            },
            "geometry": {
                "type": "Polygon",
                "coordinates": [
                    [
                        [
                            -73.63996203262,
                            45.45817844670
                        ],
                        [
                            -73.64009598768,
                            45.45823025125
                        ],
                        [
                            -73.64014085851,
                            45.45817316610
                        ],
                        [
                            -73.64001861787,
                            45.45812589183
                        ],
                        [
                            -73.64000690344,
                            45.45812136149
                        ],
                        [
                            -73.63996203262,
                            45.45817844670
                        ]
                    ]
                ]
            }
        },
        {
            "type": "Feature",
            "properties": {
                "door": "hinged"
            },
            "geometry": {
                "type": "Point",
                "coordinates": [
                    -73.64023194099,
                    45.45815753218
                ]
            }
        },
        {
            "type": "Feature",
            "properties": {
                "ref": "CC-101",
                "level": "1",
                "indoor": "room"
            },
            "geometry": {
                "type": "Polygon",
                "coordinates": [
                    [
                        [
                            -73.63997892357,
                            45.45805968237
                        ],
                        [
                            -73.64004928850,
                            45.45808689473
                        ],
                        [
                            -73.64016140574,
                            45.45813025400
                        ],
                        [
                            -73.64020042384,
                            45.45808061467
                        ],
                        [
                            -73.64001794166,
                            45.45801004299
                        ],
                        [
                            -73.63997892357,
                            45.45805968237
                        ]
                    ]
                ]
            }
        },
        {
            "type": "Feature",
            "properties": {
                "door": "hinged"
            },
            "geometry": {
                "type": "Point",
                "coordinates": [
                    -73.64001861787,
                    45.45812589183
                ]
            }
        },
        {
            "type": "Feature",
            "properties": {
                "ref": "CC-117",
                "level": "1",
                "indoor": "room"
            },
            "geometry": {
                "type": "Polygon",
                "coordinates": [
                    [
                        [
                            -73.64050412848,
                            45.45826279547
                        ],
                        [
                            -73.64053899257,
                            45.45827627847
                        ],
                        [
                            -73.64056832577,
                            45.45828762251
                        ],
                        [
                            -73.64060817997,
                            45.45823691962
                        ],
                        [
                            -73.64054398267,
                            45.45821209256
                        ],
                        [
                            -73.64050412848,
                            45.45826279547
                        ]
                    ]
                ]
            }
        },
        {
            "type": "Feature",
            "properties": {
                "highway": "footway",
                "level": "1"
            },
            "geometry": {
                "type": "LineString",
                "coordinates": [
                    [
                        -73.64057484717,
                        45.45831669177
                    ],
                    [
                        -73.64059085678,
                        45.45829633593
                    ],
                    [
                        -73.64061048188,
                        45.45827138309
                    ],
                    [
                        -73.64068025128,
                        45.45829838057
                    ]
                ]
            }
        },
        {
            "type": "Feature",
            "properties": {
                "door": "hinged"
            },
            "geometry": {
                "type": "Point",
                "coordinates": [
                    -73.64059085678,
                    45.45829633593
                ]
            }
        },
        {
            "type": "Feature",
            "properties": {
                "level": "1",
                "ref": "CC-120",
                "indoor": "room"
            },
            "geometry": {
                "type": "Polygon",
                "coordinates": [
                    [
                        [
                            -73.64048714727,
                            45.45837412687
                        ],
                        [
                            -73.64055993794,
                            45.45840227718
                        ],
                        [
                            -73.64060034954,
                            45.45835086527
                        ],
                        [
                            -73.64059202473,
                            45.45834764582
                        ],
                        [
                            -73.64052755887,
                            45.45832271494
                        ],
                        [
                            -73.64048714727,
                            45.45837412687
                        ]
                    ]
                ]
            }
        },
        {
            "type": "Feature",
            "properties": {
                "door": "hinged"
            },
            "geometry": {
                "type": "Point",
                "coordinates": [
                    -73.64004928850,
                    45.45808689473
                ]
            }
        },
        {
            "type": "Feature",
            "properties": {
                "ref": "CC-stair-5",
                "stairs": "yes",
                "indoor": "room",
                "level": "1"
            },
            "geometry": {
                "type": "Polygon",
                "coordinates": [
                    [
                        [
                            -73.63987249482,
                            45.45806845672
                        ],
                        [
                            -73.63991242856,
                            45.45808390037
                        ],
                        [
                            -73.63992659484,
                            45.45806587783
                        ],
                        [
                            -73.63994197083,
                            45.45804631628
                        ],
                        [
                            -73.63990203709,
                            45.45803087262
                        ],
                        [
                            -73.63987249482,
                            45.45806845672
                        ]
                    ]
                ]
            }
        },
        {
            "type": "Feature",
            "properties": {
                "ref": "CC-entrance-1",
                "door": "yes",
                "entrance": "main",
                "level": "1"
            },
            "geometry": {
                "type": "Point",
                "coordinates": [
                    -73.64074129380,
                    45.45842160542
                ]
            }
        },
        {
            "type": "Feature",
            "properties": {
                "min_level": "1",
                "addr:building": "CC",
                "building": "loyola-CC",
                "indoor": "level",
                "max_level": "1",
                "building:levels": "1",
                "level": "1"
            },
            "geometry": {
                "type": "LineString",
                "coordinates": [
                    [
                        -73.64068105567,
                        45.45845275676
                    ],
                    [
                        -73.64072401020,
                        45.45839843196
                    ],
                    [
                        -73.64076121661,
                        45.45841345448
                    ],
                    [
                        -73.64079221307,
                        45.45837441146
                    ],
                    [
                        -73.64075260703,
                        45.45835835162
                    ],
                    [
                        -73.64079433034,
                        45.45830567322
                    ],
                    [
                        -73.64054873490,
                        45.45821045407
                    ],
                    [
                        -73.64055190013,
                        45.45820645774
                    ],
                    [
                        -73.64043474258,
                        45.45816081873
                    ],
                    [
                        -73.64040421650,
                        45.45814931072
                    ],
                    [
                        -73.64040117005,
                        45.45814921919
                    ],
                    [
                        -73.64039304379,
                        45.45814633501
                    ],
                    [
                        -73.64025811149,
                        45.45809387452
                    ],
                    [
                        -73.64025523403,
                        45.45809750752
                    ],
                    [
                        -73.64013196369,
                        45.45804947088
                    ],
                    [
                        -73.64001820125,
                        45.45800672352
                    ],
                    [
                        -73.63999834671,
                        45.45803179132
                    ],
                    [
                        -73.63996209066,
                        45.45801766285
                    ],
                    [
                        -73.63994108513,
                        45.45804418384
                    ],
                    [
                        -73.63989913177,
                        45.45802783523
                    ],
                    [
                        -73.63986747960,
                        45.45806779837
                    ],
                    [
                        -73.63994724284,
                        45.45809888092
                    ],
                    [
                        -73.63990609500,
                        45.45815083294
                    ],
                    [
                        -73.63996421264,
                        45.45817358271
                    ],
                    [
                        -73.63995919539,
                        45.45817969886
                    ],
                    [
                        -73.64043260018,
                        45.45836392799
                    ],
                    [
                        -73.64043720413,
                        45.45835811522
                    ],
                    [
                        -73.64068105567,
                        45.45845275676
                    ]
                ]
            }
        },
        {
            "type": "Feature",
            "properties": {
                "door": "staircase"
            },
            "geometry": {
                "type": "Point",
                "coordinates": [
                    -73.64050832193,
                    45.45831527544
                ]
            }
        },
        {
            "type": "Feature",
            "properties": {
                "highway": "footway",
                "level": "1"
            },
            "geometry": {
                "type": "LineString",
                "coordinates": [
                    [
                        -73.64022728903,
                        45.45824446613
                    ],
                    [
                        -73.64017843620,
                        45.45822556236
                    ],
                    [
                        -73.64019903977,
                        45.45819936539
                    ],
                    [
                        -73.64021595818,
                        45.45817785398
                    ],
                    [
                        -73.64023194099,
                        45.45815753218
                    ],
                    [
                        -73.64025426974,
                        45.45812914164
                    ],
                    [
                        -73.64030949969,
                        45.45815051309
                    ]
                ]
            }
        }
    ]
}